SARSAT 7 (NOAA 15)      
1 25338U 98030A   22202.51710362  .00000159  00000+0  84876-4 0  9995
2 25338  98.6421 231.6042 0010118 191.8895 168.2047 14.26152826258126
METEOSAT-8 (MSG-1)      
1 27509U 02040B   22200.18521920  .00000123  00000+0  00000+0 0  9997
2 27509   8.0949  50.4917 0000237  79.3979 275.0860  1.00271175 72929
GPS BIIR-08             
1 27663U 03005A   22201.69604892 -.00000033  00000+0  00000+0 0  9998
2 27663  55.4887 271.7418 0125351  41.1271 336.6717  2.00562660142687
GPS BIIR-11             
1 28190U 04009A   22201.84037848 -.00000104  00000+0  00000+0 0  9996
2 28190  55.9841 332.7266 0090585 122.4722 154.7563  2.00559795134315
GPS BIIR-13             
1 28474U 04045A   22201.90313498 -.00000093  00000+0  00000+0 0  9993
2 28474  55.3635  22.1012 0201404 279.4795 310.0401  2.00424536129801
SARSAT 10 (NOAA 18)     
1 28654U 05018A   22202.48468731  .00000157  00000+0  10878-3 0  9997
2 28654  98.9478 272.8919 0013447 232.3568 127.6384 14.12755816884874
GPS BIIR-14M            
1 28874U 05038A   22201.43413095 -.00000102  00000+0  00000+0 0  9993
2 28874  56.0489 330.1787 0137909 274.5310  93.2479  2.00574411123209
METEOSAT-9 (MSG-2)      
1 28912U 05049B   22202.16599810  .00000121  00000+0  00000+0 0  9999
2 28912   6.0936  66.0995 0000649 330.7625   7.5502  1.00266414 60760
GOES 13                 
1 29155U 06018A   22202.38431272  .00000037  00000+0  00000+0 0  9993
2 29155   0.6830  96.8098 0004563  90.3877 311.4369  1.00273900 59208
GPS BIIR-16M            
1 29601U 06052A   22201.48301948 -.00000032  00000+0  00000+0 0  9999
2 29601  55.4965 270.6896 0083082  74.8068 286.1743  2.00552946114770
GPS BIIR-17M            
1 32260U 07047A   22201.29706624  .00000005  00000+0  00000+0 0  9997
2 32260  53.3226 139.1836 0140851  63.0321 298.3798  2.00572954108178
GPS BIIR-18M            
1 32384U 07062A   22201.66714139 -.00000103  00000+0  00000+0 0  9992
2 32384  56.1688 330.9349 0021037 140.0323 257.0317  2.00564059106882
SARSAT 12 (NOAA 19)     
1 33591U 09005A   22202.48986903  .00000122  00000+0  91107-4 0  9996
2 33591  99.1457 237.3381 0014963  92.7464 267.5420 14.12590342693252
GOES 14                 
1 35491U 09033A   22202.52757674 -.00000094  00000+0  00000+0 0  9990
2 35491   0.3975  95.0837 0013752 115.9940 173.4884  1.00272959 47851
GOES 15                 
1 36411U 10008A   22202.53868803  .00000052  00000+0  00000+0 0  9998
2 36411   0.3699 100.6874 0002350  38.7837 225.4303  1.00277597 45361
GPS BIIF-2              
1 37753U 11036A   22201.70654822 -.00000089  00000+0  00000+0 0  9993
2 37753  56.6215  27.4089 0118440  52.7687 162.4971  2.00565654 80646
GSAT0101 (GALILEO-PFM)  
1 37846U 11060A   22200.51392795 -.00000090  00000+0  00000+0 0  9991
2 37846  57.0092  20.4642 0003382  57.3376 302.7180  1.70475049 66895
GSAT0102 (GALILEO-FM2)  
1 37847U 11060B   22200.43451998 -.00000090  00000+0  00000+0 0  9994
2 37847  57.0097  20.4660 0002512  17.8069 340.2121  1.70475407 66761
LUCH 5A                 
1 37951U 11074B   22201.90315586 -.00000053  00000+0  00000+0 0  9999
2 37951   5.1008  97.0604 0005933   6.0533 327.6919  1.00274235 38871
METEOSAT-10 (MSG-3)     
1 38552U 12035B   22202.23035785  .00000058  00000+0  00000+0 0  9996
2 38552   1.5709  43.1358 0000842  28.0232 320.3820  1.00262966 36911
SARSAT 13 (METOP-B)     
1 38771U 12049A   22202.49427385  .00000069  00000+0  51683-4 0  9993
2 38771  98.6938 261.7402 0000838  57.5483  59.5497 14.21497004510562
GPS BIIF-3              
1 38833U 12053A   22201.39268092  .00000077  00000+0  00000+0 0  9994
2 38833  53.5304 202.0007 0124982  46.3995 314.6438  2.00562244 70809
GSAT0103 (GALILEO-FM3)  
1 38857U 12055A   22199.96675367  .00000007  00000+0  00000+0 0  9991
2 38857  55.1469 140.8332 0004448 271.1888  88.7306  1.70473697 60641
GSAT0104 (GALILEO-FM4)  
1 38858U 12055B   22201.10999322  .00000002  00000+0  00000+0 0  9997
2 38858  55.1473 140.8031 0001963 274.6852  85.2639  1.70474005 60668
GPS BIIF-4              
1 39166U 13023A   22201.74966261 -.00000103  00000+0  00000+0 0  9995
2 39166  55.6744 326.5258 0103954  38.6265 322.1171  2.00565718 67252
INSAT-3D                
1 39216U 13038B   22202.38938128 -.00000159  00000+0  00000+0 0  9990
2 39216   0.0416 265.4542 0001010 258.1619 357.8438  1.00273014 32995
GPS BIIF-5              
1 39533U 14008A   22201.25155707  .00000074  00000+0  00000+0 0  9994
2 39533  53.6236 207.5161 0060605 209.5157 150.1619  2.00555384 61044
LUCH 5V                 
1 39727U 14023A   22201.74523600 -.00000273  00000+0  00000+0 0  9993
2 39727   1.5746  75.9611 0003718  66.8215 158.7237  1.00270508 30042
GPS BIIF-6              
1 39741U 14026A   22201.53267883 -.00000090  00000+0  00000+0 0  9994
2 39741  56.5828  26.9415 0026230 306.9616  52.8321  2.00553709 59906
GPS BIIF-7              
1 40105U 14045A   22201.61484305  .00000016  00000+0  00000+0 0  9997
2 40105  54.6993 145.4807 0020421 111.2568 248.9395  2.00549462 57442
GSAT0201 (GALILEO 5)    
1 40128U 14050A   22199.47139269 -.00000119  00000+0  00000+0 0  9999
2 40128  50.2636 331.0471 1625743 125.1817 251.1657  1.85518932 51792
GSAT0202 (GALILEO 6)    
1 40129U 14050B   22199.73223647 -.00000120  00000+0  00000+0 0  9995
2 40129  50.2879 330.0984 1622842 125.9980 250.1780  1.85520922 53965
GPS BIIF-8              
1 40294U 14068A   22201.49095428 -.00000073  00000+0  00000+0 0  9995
2 40294  55.8388  86.6297 0042038  56.0212 304.4280  2.00573843 56575
GLONASS-K 2             
1 40315U 14075A   22202.29376819  .00000054  00000+0  00000+0 0  9990
2 40315  63.6853 239.9858 0019245 210.8930 157.2320  2.13101527 59459
GPS BIIF-9              
1 40534U 15013A   22201.63173397 -.00000017  00000+0  00000+0 0  9999
2 40534  53.6821 263.3212 0069063  20.2950 340.0461  2.00550403 53199
GSAT0203 (GALILEO 7)    
1 40544U 15017A   22202.05416858 -.00000090  00000+0  00000+0 0  9994
2 40544  56.8049  20.4509 0001410 210.8686 149.1479  1.70476039 45537
GSAT0204 (GALILEO 8)    
1 40545U 15017B   22199.96061083 -.00000091  00000+0  00000+0 0  9997
2 40545  56.8101  20.5206 0001954 180.2704 179.7521  1.70475593  7883
GPS BIIF-10             
1 40730U 15033A   22201.79403346 -.00000103  00000+0  00000+0 0  9992
2 40730  55.1720 325.3375 0073519   7.9374 352.1842  2.00576772 51365
METEOSAT-11 (MSG-4)     
1 40732U 15034A   22202.30038837 -.00000005  00000+0  00000+0 0  9993
2 40732   0.3546  63.8130 0001601  23.4622 320.2368  1.00263005 25710
GSAT0205 (GALILEO 9)    
1 40889U 15045A   22199.72779077 -.00000005  00000+0  00000+0 0  9997
2 40889  55.6025 261.1002 0003189 359.4120   0.6647  1.70473826 42648
GSAT0206 (GALILEO 10)   
1 40890U 15045B   22202.29490418  .00000005  00000+0  00000+0 0  9994
2 40890  55.5999 261.0251 0002037 322.8159  37.2452  1.70473845 42710
GPS BIIF-11             
1 41019U 15062A   22201.34059486 -.00000072  00000+0  00000+0 0  9993
2 41019  55.8269  86.4792 0078484 217.7730 141.7236  2.00562751 49191
ELEKTRO-L 2             
1 41105U 15074A   22201.86696770 -.00000122  00000+0  00000+0 0  9998
2 41105   3.0706  87.7694 0002181  63.7630  84.6137  1.00270031 24208
GSAT0209 (GALILEO 12)   
1 41174U 15079A   22201.29588095  .00000000  00000+0  00000+0 0  9990
2 41174  55.1636 140.5004 0004683 312.0017  47.9301  1.70474103 41011
GSAT0208 (GALILEO 11)   
1 41175U 15079B   22202.10192853 -.00000005  00000+0  00000+0 0  9991
2 41175  55.1621 140.4768 0003962 312.3735  47.5637  1.70474058 41029
GPS BIIF-12             
1 41328U 16007A   22201.43051721  .00000020  00000+0  00000+0 0  9992
2 41328  54.9159 146.1678 0062264 230.6968 128.7285  2.00569219 47200
GSAT0211 (GALILEO 14)   
1 41549U 16030A   22201.04820467 -.00000002  00000+0  00000+0 0  9992
2 41549  55.7464 260.9958 0003724 302.4477  57.5906  1.70475356 38324
GSAT0210 (GALILEO 13)   
1 41550U 16030B   22200.75423789 -.00000003  00000+0  00000+0 0  9998
2 41550  55.7461 261.0054 0003924 270.4088  89.6208  1.70475424 38312
INSAT-3DR               
1 41752U 16054A   22202.38684153 -.00000079  00000+0  00000+0 0  9996
2 41752   0.0945  96.8041 0010231 169.4820 246.0818  1.00271980 21497
GSAT0207 (GALILEO 15)   
1 41859U 16069A   22201.58917945 -.00000002  00000+0  00000+0 0  9995
2 41859  54.8241 140.6653 0004794 299.1526  60.7707  1.70472711 35281
GSAT0212 (GALILEO 16)   
1 41860U 16069B   22202.02916917 -.00000004  00000+0  00000+0 0  9997
2 41860  54.8217 140.6507 0003544 321.8268  38.1187  1.70472704 35320
GSAT0213 (GALILEO 17)   
1 41861U 16069C   22201.22138167  .00000001  00000+0  00000+0 0  9998
2 41861  54.8241 140.6783 0004442 278.7593  81.1619  1.70472870 35178
GSAT0214 (GALILEO 18)   
1 41862U 16069D   22200.19530377  .00000005  00000+0  00000+0 0  9997
2 41862  54.8222 140.7013 0003637 283.7499  76.1805  1.70472778 35281
GOES 16                 
1 41866U 16071A   22202.50067282 -.00000250  00000+0  00000+0 0  9994
2 41866   0.0548 237.5532 0000589 296.5306 230.1857  1.00271774 20809
GSAT-17                 
1 42815U 17040B   22202.39076556 -.00000260  00000+0  00000+0 0  9998
2 42815   0.0166  92.8377 0001975 153.0598 287.3602  1.00272159 18569
GSAT0215 (GALILEO 19)   
1 43055U 17079A   22201.27241333 -.00000001  00000+0  00000+0 0  9993
2 43055  55.7220 260.8217 0003446 263.4407  96.5943  1.70474544 28641
GSAT0216 (GALILEO 20)   
1 43056U 17079B   22199.21829150 -.00000003  00000+0  00000+0 0  9995
2 43056  55.7235 260.8781 0005043 270.0862  89.9354  1.70474604 28625
GSAT0217 (GALILEO 21)   
1 43057U 17079C   22201.78485723  .00000002  00000+0  00000+0 0  9994
2 43057  55.7201 260.8070 0004587 280.4073  79.6155  1.70474669 28650
GSAT0218 (GALILEO 22)   
1 43058U 17079D   22201.41830920  .00000000  00000+0  00000+0 0  9996
2 43058  55.7205 260.8145 0005629 267.1541  92.8558  1.70474629 28670
GOES 17                 
1 43226U 18022A   22202.27300745  .00000095  00000+0  00000+0 0  9998
2 43226   0.0831 254.8568 0000284 276.9182  88.2157  1.00273007 16129
